CAS-2T & KS-1Q          
1 41847U 16066G   21119.42731008  .00000138  00000-0  31149-4 0  9996
2 41847  98.6059 178.3378 0365413   6.9235 353.6807 14.38180908234831
NAYIF-1 (EO-88)         
1 42017U 17008BX  21119.44778600  .00002831  00000-0  10648-3 0  9996
2 42017  97.3185 187.9241 0004257 285.7833  74.2937 15.27946273233775
ZHUHAI-1 02 (CAS-4B)    
1 42759U 17034B   21119.94849628  .00000586  00000-0  48602-4 0  9999
2 42759  43.0162  87.7362 0009868 228.2157 230.9941 15.10175119213810
ZHUHAI-1 01 (CAS-4A)    
1 42761U 17034D   21119.99946269  .00000575  00000-0  47852-4 0  9990
2 42761  43.0172  86.5459 0010283 229.3265 181.6663 15.10256599213829
MAX VALIER SAT          
1 42778U 17036P   21119.70168528  .00001673  00000-0  72958-4 0  9998
2 42778  97.2595 169.9015 0011503 357.6856   2.4326 15.23471455213862
RADFXSAT (FOX-1B)       
1 43017U 17073E   21119.63984704  .00001007  00000-0  81827-4 0  9996
2 43017  97.7101  25.5577 0256704  99.5707 263.4609 14.79458580185908
FOX-1D (AO-92)          
1 43137U 18004AC  21119.78303213  .00001891  00000-0  78339-4 0  9995
2 43137  97.4083 194.3109 0009544  32.9945 327.1887 15.25107467183244
DIWATA-2B               
1 43678U 18084H   21119.82288187 -.00000195  00000-0 -13624-4 0  9994
2 43678  97.9151 244.8722 0009023 205.0000 155.0789 14.91734234136184
ES'HAIL 2               
1 43700U 18090A   21119.25882575  .00000138  00000-0  00000-0 0  9990
2 43700   0.0069 209.7128 0001373 209.5216 277.1920  1.00275050  8870
FOX-1CLIFF (AO-95)      
1 43770U 18099N   21119.86777679  .00000867  00000-0  83762-4 0  9990
2 43770  97.6674 191.1221 0013725 214.7932 145.2393 14.95278322131190
ITASAT 1                
1 43786U 18099AE  21119.79661919  .00000584  00000-0  57661-4 0  9993
2 43786  97.6691 191.6965 0014545 208.3406 151.7025 14.95577407131215
JY1SAT (JO-97)          
1 43803U 18099AX  21119.43387529  .00000293  00000-0  31321-4 0  9998
2 43803  97.6658 191.0996 0014266 209.5797 150.4618 14.95818254131168
UWE-4                   
1 43880U 18111E   21119.65092857  .00000059  00000-0  10225-4 0  9999
2 43880  97.6899  28.2106 0010689 268.9930  91.0067 14.96823591127789
PSAT2 (NO-104)          
1 44354U 19036R   21119.22873003  .00015282  00000-0  20268-3 0  9997
2 44354  28.5264  94.9373 0330067 102.8010 260.9670 15.12443068101517
BRICSAT2 (NO-103)       
1 44355U 19036S   21119.49386063  .00027358  00000-0  30834-3 0  9999
2 44355  28.5241  55.6735 0273158 166.7394 194.0555 15.27089959101936
JAISAT-1                
1 44419U 19038F   21119.65452578  .00001670  00000-0  96163-4 0  9992
2 44419  97.5845  84.5547 0022583 118.2222 242.1293 15.13632530100411
DUCHIFAT-3              
1 44854U 19089C   21119.84972065  .00000952  00000-0  82535-4 0  9990
2 44854  36.9659  28.0535 0006802 101.9183 258.2313 14.99449320 75806
RS-44 & BREEZE-KM R/B   
1 44909U 19096E   21119.68474038  .00000007  00000-0 -14747-4 0  9990
2 44909  82.5188 145.2198 0216892 206.8540 152.1203 12.79709783 62581
ORBITAL FACTORY 2 (OF-2)
1 45113U 19071C   21119.46682345  .00003562  00000-0  11266-3 0  9999
2 45113  51.6420 274.9716 0012528 115.8849 244.3427 15.35449425 69647
HUSKYSAT-1 (HO-107)     
1 45119U 19071J   21119.86993533  .00003379  00000-0  10727-3 0  9990
2 45119  51.6419 272.4099 0011870 113.9576 246.2651 15.35506210 69706
BY70-2                  
1 45857U 20042B   21119.79922280  .00001795  00000-0  26230-3 0  9998
2 45857  97.9841 196.0532 0011236  20.8020 339.3639 14.76900447 44365
SALSAT                  
1 46495U 20068K   21119.94192955  .00000299  00000-0  26485-4 0  9991
2 46495  97.6916  57.7355 0015040 232.7833 127.2018 15.03428457 32047
BY70-3                  
1 46839U 20079N   21119.83896824  .00005069  00000-0  15937-3 0  9998
2 46839  97.2419 194.6640 0008075  33.3439  76.3153 15.33389284 26750
RADFXSAT-2 (AO-109)     
1 47311U 21002C   21119.53406687  .00001669  00000-0  84909-4 0  9990
2 47311  60.6837 114.2997 0029485  19.9242 340.2988 15.21496250 15427
UVSQ-SAT                
1 47438U 21006AB  21119.84076272  .00001312  00000-0  77831-4 0  9992
2 47438  97.4913 181.9269 0011125 265.1140  94.8821 15.13035515 14709
DIY-1 (ARDUIQUBE)       
1 47963U 21022AH  21119.43026786  .00002169  00000-0  14826-3 0  9998
2 47963  97.5613  22.6318 0021291 109.8869 250.4655 15.07014317  4516
